{"type": "FeatureCollection", "name": "Mutha_River_and_Waterways", "features": [{"type": "Feature", "properties": {"name": "Mutha", "name:en": "Mutha", "name:gu": "\u0aae\u0ac1\u0aa0\u0abe", "name:mr": "\u092e\u0941\u0920\u093e", "waterway": "river", "width": "100"}, "geometry": {"type": "LineString", "coordinates": [[73.7634967, 18.4428873], [73.7634979, 18.4429326], [73.763843, 18.44397], [73.7647537, 18.4447953], [73.7650275, 18.4450122], [73.7662206, 18.4457043], [73.7671046, 18.4458916], [73.7681603, 18.4462905], [73.7695765, 18.4466406], [73.7701945, 18.4466732], [73.7703662, 18.446893], [73.7709155, 18.4470966], [73.7706752, 18.4479841], [73.7703318, 18.4490018], [73.770246, 18.4497183], [73.7703318, 18.4514199], [73.7705807, 18.4529913], [73.7706065, 18.4538218], [73.7712159, 18.4551244], [73.7716794, 18.4561421], [73.7724604, 18.4575995], [73.7732415, 18.4583566], [73.7740397, 18.4589917], [73.774898, 18.4599361], [73.7752156, 18.4599361], [73.775516, 18.459871], [73.7757821, 18.4599524], [73.7758679, 18.4602129], [73.7761082, 18.4603594], [73.7768721, 18.4605141], [73.7779193, 18.4608235], [73.7787432, 18.4608642], [73.7800135, 18.4609538], [73.7808032, 18.4612794], [73.7821336, 18.4614097], [73.7828288, 18.461312], [73.7835669, 18.4616051], [73.7837472, 18.4618737], [73.7839703, 18.4623785], [73.7842192, 18.4626635], [73.7846484, 18.4628751], [73.7850604, 18.4628426], [73.786159, 18.4628588], [73.7872405, 18.4626879], [73.7892575, 18.4623215], [73.7904162, 18.4616295], [73.7907166, 18.4615888], [73.7911715, 18.4618737], [73.7916798, 18.4621027], [73.7928582, 18.4623867], [73.7936877, 18.4625305], [73.7945361, 18.4625983], [73.7954116, 18.4630542], [73.7955661, 18.4631682], [73.7969823, 18.464308], [73.7976775, 18.4645522], [73.7979436, 18.4647558], [73.7991195, 18.4660828], [73.7994027, 18.4665061], [73.7998147, 18.4667992], [73.8006387, 18.4672876], [73.8026213, 18.468232], [73.8032737, 18.4687368], [73.8080371, 18.4722387], [73.8086603, 18.472861], [73.8089642, 18.4732387], [73.8091702, 18.4737841], [73.8092377, 18.4740199], [73.8093203, 18.4743134], [73.8095565, 18.4748831], [73.8103578, 18.4764334], [73.8112817, 18.4782208], [73.8115907, 18.4787255], [73.8118224, 18.4789534], [73.8123889, 18.4793279], [73.8129296, 18.4795721], [73.8144402, 18.4801175], [73.8176846, 18.4817049], [73.8198733, 18.4825678], [73.8208275, 18.4827246], [73.822373, 18.4827199], [73.82303, 18.4826613], [73.82357, 18.4826931], [73.823976, 18.4827957], [73.8250575, 18.4833248], [73.8258986, 18.4842284], [73.8268857, 18.4864018], [73.8272362, 18.4873531], [73.8281374, 18.4891195], [73.8284367, 18.489496], [73.8287704, 18.4898994], [73.8290829, 18.4904312], [73.8293803, 18.4908264], [73.8296866, 18.4913763], [73.8299318, 18.4916831], [73.8301362, 18.491999], [73.8303361, 18.4922301], [73.8305482, 18.4926248], [73.8311141, 18.4934235], [73.8316184, 18.4941037], [73.8321704, 18.4949339], [73.8327943, 18.4957774], [73.8334002, 18.4964791], [73.8343017, 18.4970986], [73.835153, 18.4977991], [73.8359453, 18.4989086], [73.8365043, 18.5001509], [73.8368932, 18.5015672], [73.8368578, 18.5022235], [73.8366802, 18.50389], [73.8365931, 18.5048139], [73.8365097, 18.5057726], [73.8365314, 18.5060058], [73.8367697, 18.5065903], [73.8369143, 18.5068393], [73.8369985, 18.5070268], [73.8372257, 18.5075274], [73.8375434, 18.5078518], [73.8383183, 18.5085335], [73.8385331, 18.5087319], [73.8386994, 18.508887], [73.8388161, 18.5089975], [73.8398289, 18.5098684], [73.8400184, 18.5101134], [73.840301, 18.5104788], [73.8409227, 18.5114006], [73.8412452, 18.5118787], [73.841537, 18.5122694], [73.8427349, 18.5133192], [73.8436533, 18.5142145], [73.8445881, 18.5154548], [73.844932, 18.5159112], [73.845675, 18.5172967], [73.8458132, 18.5174812], [73.845945, 18.5176572], [73.8462015, 18.5179899], [73.8465286, 18.5184141], [73.8477125, 18.5195586], [73.8487173, 18.5205301], [73.8489331, 18.5206061], [73.8499189, 18.5209533], [73.851042, 18.5211127], [73.8513523, 18.5211568], [73.8527256, 18.5214253], [73.8528308, 18.5214612], [73.8541399, 18.5219075], [73.8542534, 18.5219462], [73.855245, 18.5225088], [73.8553005, 18.5225403], [73.8564335, 18.5235169], [73.8580299, 18.5250225], [73.8584002, 18.5254505], [73.8586095, 18.5257474], [73.8588198, 18.5259963], [73.8592573, 18.52652], [73.8594241, 18.5266883], [73.8595175, 18.5267825], [73.8595803, 18.5268361], [73.8602873, 18.5274396], [73.8605086, 18.5277745], [73.8606907, 18.52805], [73.8607258, 18.5287733], [73.8607508, 18.529287], [73.8607131, 18.5294997], [73.8603474, 18.5315656]]}}, {"type": "Feature", "properties": {"name": "Mula", "name:en": "Mula", "name:mr": "\u092e\u0941\u0933\u093e", "waterway": "river"}, "geometry": {"type": "LineString", "coordinates": [[73.5109577, 18.5312066], [73.5119677, 18.5295997], [73.5126919, 18.5285315], [73.5131854, 18.5278093], [73.5134804, 18.5275041], [73.5136628, 18.5274075], [73.5138076, 18.5273718], [73.5140169, 18.5273769], [73.5142609, 18.5274914], [73.5144111, 18.527766], [73.5147679, 18.5285392], [73.5150871, 18.5292614], [73.5152373, 18.5296429], [73.5153311, 18.5299608], [73.5153735, 18.530105], [73.5154948, 18.530327], [73.5158703, 18.5307924], [73.5162377, 18.5313672], [73.5163343, 18.5315706], [73.5163772, 18.5316469], [73.516522, 18.531802], [73.5170987, 18.532186], [73.518118, 18.5328981], [73.5187858, 18.5334067], [73.5193384, 18.5337348], [73.5200652, 18.5340985], [73.520835, 18.5344367], [73.5217899, 18.5346707], [73.5224696, 18.5347513], [73.5228038, 18.5347648], [73.5232383, 18.5347266], [73.5237291, 18.5346274], [73.5240698, 18.5345104], [73.5246279, 18.5343831], [73.5249683, 18.5342536], [73.5254377, 18.5340273], [73.5268493, 18.5332439], [73.5278798, 18.5330009], [73.5292275, 18.5332725], [73.5320222, 18.5336466], [73.5331366, 18.5337694], [73.5341241, 18.5342432], [73.5370191, 18.5341787], [73.5381188, 18.5340376], [73.5386917, 18.5341827], [73.5402832, 18.5344226], [73.5419786, 18.5352742], [73.5436094, 18.5359252], [73.5468681, 18.5358479], [73.5486286, 18.5350979], [73.5500459, 18.5341886], [73.5517511, 18.5335315], [73.5529956, 18.5329415], [73.5536823, 18.5325753], [73.5545835, 18.5323108], [73.5555062, 18.5323312], [73.5564932, 18.5325957], [73.5579094, 18.5340198], [73.5589179, 18.5353015], [73.5590864, 18.5354821], [73.5603985, 18.5368884], [73.5610208, 18.5375994], [73.5632095, 18.5386777], [73.5643896, 18.5394508], [73.5655698, 18.5402442], [73.5662693, 18.5404195], [73.5669646, 18.5408952], [73.5681876, 18.541241], [73.5686164, 18.5413564], [73.5689853, 18.5412423], [73.5693282, 18.5411139], [73.5696232, 18.5410396], [73.5701746, 18.5410118], [73.5709185, 18.5409199], [73.5715238, 18.5408404], [73.5718427, 18.5408856], [73.5721202, 18.5409865], [73.5723577, 18.5409845], [73.5726954, 18.5409455], [73.5728399, 18.5408316], [73.5732037, 18.540653], [73.5735514, 18.5405226], [73.5740055, 18.5402588], [73.5742386, 18.5401222], [73.574427, 18.5399729], [73.5747018, 18.5398023], [73.5749321, 18.5396213], [73.5752683, 18.5393933], [73.5754668, 18.5392979], [73.5757637, 18.5390382], [73.5759786, 18.538858], [73.5763745, 18.5386335], [73.5769389, 18.5384703], [73.5775646, 18.5381894], [73.57838, 18.5380674], [73.5794529, 18.5378029], [73.5808223, 18.5373925], [73.5816148, 18.5364563], [73.5818068, 18.5362295], [73.5818347, 18.5353605], [73.5819635, 18.5342619], [73.582178, 18.5328378], [73.5826501, 18.530317], [73.5828306, 18.5289158], [73.583638, 18.5278107], [73.5843249, 18.5274443], [73.5846043, 18.5271865], [73.5848561, 18.5271945], [73.5854396, 18.5275094], [73.5856547, 18.5275371], [73.5859853, 18.5277628], [73.5861449, 18.5280345], [73.5863884, 18.5282208], [73.5866551, 18.5282889], [73.5867318, 18.5282653], [73.586949, 18.5281983], [73.5874124, 18.5282729], [73.5875551, 18.5282958], [73.5879692, 18.5283543], [73.5893017, 18.5285837], [73.5905388, 18.5284865], [73.5912356, 18.5284692], [73.592206, 18.5284148], [73.5940412, 18.5281949], [73.5949889, 18.5281134], [73.5960826, 18.5279163], [73.597336, 18.5276936], [73.5980533, 18.5274993], [73.5982217, 18.52738], [73.5982987, 18.5271872], [73.5984037, 18.5270347], [73.5986556, 18.5265881], [73.5988845, 18.5263472], [73.5992474, 18.5261346], [73.5997023, 18.5259389], [73.6002001, 18.5257806], [73.60069, 18.5256618], [73.6010992, 18.5255898], [73.6017595, 18.5255355], [73.6027477, 18.5255856], [73.6035442, 18.5256578], [73.6042022, 18.5258027], [73.6054227, 18.5259548], [73.6087834, 18.526899], [73.6099173, 18.5277373], [73.6102285, 18.5280018], [73.6111082, 18.5289377], [73.6117734, 18.5298023], [73.6122348, 18.5305246], [73.6127712, 18.5318877], [73.6137904, 18.5334034], [73.6144449, 18.5343291], [73.615153, 18.5351022], [73.6158826, 18.5360787], [73.6162366, 18.5365975], [73.6165585, 18.5372079], [73.6175455, 18.5381742], [73.6186115, 18.5388519], [73.6196377, 18.539049], [73.6213543, 18.5390897], [73.6237253, 18.5387947], [73.6249377, 18.5384183], [73.6258926, 18.5380013], [73.6269225, 18.5374215], [73.6276977, 18.5372391], [73.6283495, 18.5370858], [73.6295153, 18.5365741], [73.6307255, 18.5366454], [73.6325552, 18.5371977], [73.6339392, 18.5376046], [73.6342668, 18.5376106], [73.6344617, 18.5376142], [73.634819, 18.5375639], [73.6363961, 18.5372994], [73.6379411, 18.537157], [73.6394885, 18.537224], [73.6417069, 18.5370553], [73.6431231, 18.5371061], [73.6436166, 18.5370756], [73.6450543, 18.5370451], [73.6466529, 18.5372485], [73.648627, 18.5374011], [73.6505367, 18.5377165], [73.6514701, 18.5379199], [73.6529936, 18.5377063], [73.6540236, 18.5373808], [73.6554183, 18.5372689], [73.6571779, 18.5374927], [73.6577572, 18.5375029], [73.6598493, 18.5373503], [73.6605514, 18.5372837], [73.6609222, 18.5372485], [73.6621346, 18.5372689], [73.6650957, 18.5372892], [73.6654176, 18.5367908], [73.6654712, 18.5363432], [73.6657395, 18.5361093], [73.6663081, 18.5360075], [73.6675205, 18.5357329], [73.6686899, 18.5356922], [73.6697521, 18.5360584], [73.6708786, 18.5363534], [73.6726907, 18.5365056], [73.6735919, 18.5367497], [73.6742357, 18.5371973], [73.6749223, 18.5375228], [73.6756519, 18.5380518], [73.6765531, 18.5383773], [73.6772827, 18.5387028], [73.6781839, 18.5387028], [73.6788705, 18.5384994], [73.6798576, 18.5382552], [73.6807159, 18.5380925], [73.6824754, 18.5380518], [73.6835912, 18.5378483], [73.6843637, 18.5374008], [73.6850503, 18.536587], [73.6851791, 18.5358953], [73.6855224, 18.5346339], [73.6868528, 18.5320298], [73.6880115, 18.5308904], [73.689771, 18.5300359], [73.6911014, 18.5296697], [73.6921743, 18.5297511], [73.6932043, 18.5299139], [73.6945346, 18.5301987], [73.6953389, 18.5303976], [73.6955217, 18.5304428], [73.6963371, 18.5307277], [73.6971954, 18.5310125], [73.6974361, 18.5311446], [73.6980108, 18.5314601], [73.6987832, 18.5320298], [73.699427, 18.5328436], [73.7006286, 18.5339422], [73.7012294, 18.534878], [73.7014869, 18.5360987], [73.7012723, 18.537889], [73.7015298, 18.5391097], [73.701959, 18.5398014], [73.7020057, 18.5408429], [73.7023211, 18.5418087], [73.7024366, 18.5422193], [73.7025336, 18.5425645], [73.7028173, 18.5435853], [73.7030748, 18.544155], [73.7033323, 18.5448873], [73.7035898, 18.5454976], [73.7041477, 18.54623], [73.7045339, 18.5467589], [73.705006, 18.5472471], [73.7056926, 18.5474913], [73.7070659, 18.5478574], [73.7116149, 18.5496476], [73.7121728, 18.5500545], [73.712602, 18.55038], [73.7134603, 18.5511937], [73.7137607, 18.5517633], [73.7140182, 18.5528211], [73.7142328, 18.5548147], [73.7135032, 18.5567675], [73.7123037, 18.5577329], [73.7105012, 18.5593195], [73.7094692, 18.5606324], [73.7090829, 18.5616902], [73.7087825, 18.5633989], [73.7088254, 18.5641312], [73.7092546, 18.5649855], [73.7097696, 18.5655144], [73.7107137, 18.5659212], [73.7117008, 18.5661246], [73.7130311, 18.5661246], [73.7144903, 18.5661246], [73.7155631, 18.5657991], [73.7171081, 18.5650669], [73.7180788, 18.5650352], [73.7183526, 18.5650262], [73.7195316, 18.5652303], [73.720713, 18.565433], [73.7215284, 18.5656364], [73.7235025, 18.5654737], [73.7248758, 18.5652296], [73.726292, 18.5649855], [73.7271503, 18.5649855], [73.7280515, 18.5651075], [73.7287811, 18.565311], [73.7296823, 18.5656771], [73.7301114, 18.5659212], [73.7310127, 18.567101], [73.7316993, 18.5674671], [73.7342313, 18.5696639], [73.7348751, 18.57003], [73.7381366, 18.5725929], [73.7391237, 18.5731217], [73.7402824, 18.5734879], [73.7413553, 18.5737319], [73.7433063, 18.5740532], [73.7436577, 18.5738831], [73.7443792, 18.5735338], [73.7455337, 18.5731885], [73.7470626, 18.5732952], [73.7493375, 18.5741794], [73.7502817, 18.5744642], [73.7509254, 18.5749117], [73.7511829, 18.5754812], [73.7513975, 18.57601], [73.751655, 18.5765388], [73.7523416, 18.5776779], [73.7538436, 18.5795491], [73.7546161, 18.5807288], [73.7556461, 18.5830067], [73.7571481, 18.5850406], [73.7586072, 18.5864236], [73.7596801, 18.5871558], [73.7603239, 18.5876033], [73.761268, 18.5881321], [73.7622914, 18.588426], [73.7633708, 18.5884982], [73.7650016, 18.5882948], [73.7659887, 18.5879287], [73.7670616, 18.5876846], [73.7685207, 18.5873592], [73.7697652, 18.5872372], [73.770881, 18.5874406], [73.7718252, 18.587644], [73.7726835, 18.58801], [73.7733701, 18.5882134], [73.7740997, 18.5883761], [73.7747863, 18.5885388], [73.7760309, 18.5882541], [73.7769808, 18.5877665], [73.7777904, 18.5869524], [73.7782195, 18.5865457], [73.7784225, 18.5859974], [73.7790779, 18.5842271], [73.7802366, 18.580444], [73.7805799, 18.5792643], [73.7810371, 18.5786451], [73.7811444, 18.5783197], [73.7816099, 18.5777999], [73.7834123, 18.5763354], [73.7867168, 18.5737319], [73.7894634, 18.572064], [73.7898925, 18.5711691], [73.7900213, 18.5704775], [73.7899354, 18.5695012], [73.7898496, 18.5688503], [73.7896779, 18.5684841], [73.7892059, 18.5680366], [73.7886909, 18.5678739], [73.7882617, 18.5668162], [73.7881759, 18.5660839], [73.7884007, 18.5651073], [73.7887115, 18.564571], [73.7897317, 18.5640147], [73.7909225, 18.5638057], [73.7920999, 18.5634599], [73.7926218, 18.5633603], [73.7928995, 18.5633517], [73.7930766, 18.5635729], [73.7931778, 18.563834], [73.79319, 18.5640705], [73.7933312, 18.564299], [73.794069, 18.5648799], [73.7944874, 18.5651138], [73.7951778, 18.565864], [73.7954074, 18.5661957], [73.795688, 18.5665607], [73.796086, 18.5669953], [73.7964908, 18.5673095], [73.7974027, 18.5677112], [73.7991193, 18.5687689], [73.800278, 18.5692164], [73.8016942, 18.5695825], [73.8026813, 18.5695825], [73.8039688, 18.5693384], [73.8050416, 18.569013], [73.8070589, 18.568516], [73.8093468, 18.5680225], [73.8124871, 18.5679029], [73.813841, 18.5681863], [73.8169882, 18.568845], [73.8188604, 18.5690537], [73.8206199, 18.5694198], [73.8224653, 18.5694605], [73.8236669, 18.5691757], [73.8267997, 18.5681587], [73.8277009, 18.5680773], [73.8286022, 18.5682807], [73.8295463, 18.5688096], [73.8302329, 18.5695418], [73.8306621, 18.5703961], [73.8315633, 18.5723081], [73.83225, 18.5732031], [73.8355974, 18.5751151], [73.8358697, 18.5751418], [73.8368419, 18.5752778], [73.8381723, 18.5751964], [73.8437513, 18.5728777], [73.8451246, 18.5724302], [73.8466695, 18.5725115], [73.8492444, 18.5735285], [73.8506177, 18.5743421], [73.851476, 18.5756846], [73.8533214, 18.5806474], [73.854008, 18.5814203], [73.8557015, 18.582328], [73.8578043, 18.5832229], [73.8608593, 18.5837008], [73.8622246, 18.5839144], [73.8633833, 18.583833], [73.8645849, 18.5833449], [73.8651858, 18.5828974], [73.8657866, 18.5822466], [73.8664732, 18.5811483], [73.8673168, 18.5799068], [73.8693167, 18.5781169], [73.8698243, 18.5775826], [73.8701428, 18.5772088], [73.8725317, 18.5752711], [73.8732906, 18.5739676], [73.8730928, 18.5729473], [73.8729473, 18.5723811], [73.873222, 18.5715837], [73.8739123, 18.5706768], [73.8736769, 18.5691104], [73.8735858, 18.5687875], [73.8734794, 18.5684106], [73.873076, 18.5677435], [73.8728786, 18.566702], [73.8725181, 18.5643669], [73.8729473, 18.562406], [73.873119, 18.5595419], [73.873222, 18.5573612], [73.8724752, 18.5560431], [73.871574, 18.5554328], [73.8696686, 18.5557583], [73.8684841, 18.5557013], [73.8644501, 18.5549039], [73.8626905, 18.5542123], [73.8582874, 18.5516491], [73.8570515, 18.5505913], [73.8560816, 18.5484593], [73.8548113, 18.544765], [73.8543999, 18.5435181], [73.8541682, 18.5411989], [73.854425, 18.5363833], [73.8547855, 18.5341861], [73.8557812, 18.5327538], [73.8562069, 18.5324113], [73.8564558, 18.532211], [73.8569141, 18.5318423], [73.8581329, 18.531354], [73.8593603, 18.5312727], [73.8603474, 18.5315656]]}}, {"type": "Feature", "properties": {"name": "Mula-Mutha", "name:mr": "\u092e\u0941\u0933\u093e-\u092e\u0941\u0920\u093e", "waterway": "river"}, "geometry": {"type": "LineString", "coordinates": [[73.8603474, 18.5315656], [73.8613087, 18.5322655], [73.8617006, 18.5327457], [73.8622785, 18.5334536], [73.8634373, 18.5353009], [73.8648105, 18.5371319], [73.865995, 18.5380678], [73.8682009, 18.5391257], [73.8695484, 18.5395895], [73.8713165, 18.5400778], [73.8719789, 18.5402889], [73.8793754, 18.5426456], [73.8833494, 18.5431583], [73.887701, 18.5437604], [73.8916921, 18.5438093], [73.8948249, 18.5427107], [73.9007043, 18.5412866], [73.9017429, 18.5409774], [73.90279, 18.5410425], [73.9036054, 18.5408147], [73.9038046, 18.5408422], [73.9061374, 18.5411646], [73.9094951, 18.5408058], [73.9106366, 18.539992], [73.914911, 18.5394956], [73.9155118, 18.5398455], [73.915838, 18.539813], [73.9177137, 18.5391569], [73.9224176, 18.5391225], [73.9236547, 18.5390495], [73.9250271, 18.5384069], [73.9303999, 18.5365184], [73.9335756, 18.5361115], [73.9348957, 18.5359049], [73.936995, 18.5356738], [73.938257, 18.5358057], [73.9397031, 18.5364337], [73.9405048, 18.5373982], [73.943532, 18.543354], [73.9448195, 18.5445747], [73.9462786, 18.5451443], [73.9481669, 18.5453884], [73.9498021, 18.5454901], [73.9536432, 18.545729], [73.9560761, 18.5463845], [73.9579644, 18.5467185], [73.9595093, 18.546682], [73.9606123, 18.5463649], [73.9618998, 18.5452256], [73.9649038, 18.5438423], [73.9672213, 18.5431913], [73.9695387, 18.5430285], [73.9715986, 18.5419707], [73.9734869, 18.5409128], [73.9745169, 18.5391225], [73.9758043, 18.5347281], [73.9770918, 18.5331005], [73.9786367, 18.5311474], [73.9846449, 18.5271597], [73.9899664, 18.5243113], [73.9917688, 18.5221139], [73.9922918, 18.5200427], [73.9923697, 18.5173122], [73.9915215, 18.5130719], [73.991867, 18.5102009], [73.9936244, 18.5081152], [73.995223, 18.5070266], [73.9955511, 18.5068902], [73.9958578, 18.5068963], [73.9978472, 18.5071711], [73.9986674, 18.5072036], [74.0011244, 18.5068943], [74.0029649, 18.506351], [74.0060205, 18.505879], [74.0099649, 18.505592], [74.0126257, 18.5056734], [74.0142216, 18.5051505], [74.0162343, 18.5037607], [74.0183764, 18.5008712], [74.0194922, 18.4991619], [74.0217238, 18.49672], [74.0243845, 18.4954177], [74.0261186, 18.4956356], [74.0262674, 18.4956543], [74.0275361, 18.4965898], [74.0290252, 18.4974404], [74.030736, 18.4986735], [74.0320229, 18.5013087], [74.0333109, 18.5040456], [74.0341692, 18.5054292], [74.035499, 18.5071243], [74.0362929, 18.5087582], [74.0366534, 18.5127382], [74.0378229, 18.5161239], [74.0395765, 18.5186144], [74.0412931, 18.5225209], [74.0409557, 18.524877], [74.0396682, 18.5264212], [74.0377741, 18.5282991], [74.037509, 18.5298692], [74.0373909, 18.5309069], [74.0371978, 18.5319445], [74.0369564, 18.5329922], [74.0369725, 18.533511], [74.0370637, 18.5340501], [74.0372032, 18.5346096], [74.0373748, 18.534986], [74.0376055, 18.535281], [74.0379435, 18.5355963], [74.0382761, 18.5357947], [74.038952, 18.5359219], [74.0395957, 18.5359778], [74.040615, 18.5359524], [74.0413392, 18.535871], [74.0420312, 18.5357489], [74.0432596, 18.5354844], [74.0442628, 18.5351742], [74.0451693, 18.534747], [74.0456682, 18.5343604], [74.0465748, 18.5333635], [74.0478784, 18.5317359], [74.0487957, 18.5305915], [74.0493858, 18.5299099], [74.0500134, 18.5292792], [74.0506732, 18.5286689], [74.0512258, 18.5283027], [74.0517729, 18.5280026], [74.0521914, 18.5278907], [74.0529799, 18.5277635], [74.055056, 18.5275346], [74.0566975, 18.5274583], [74.0589458, 18.5276318], [74.0609306, 18.5281913], [74.0633597, 18.5287792], [74.0660124, 18.5298453], [74.0685095, 18.5307385], [74.069915, 18.532714], [74.0712481, 18.5353791], [74.0726214, 18.5370067], [74.0745955, 18.538146], [74.0763121, 18.5382274], [74.0776854, 18.5373322], [74.0793161, 18.5372508], [74.0819999, 18.5370657], [74.0842637, 18.5350862], [74.0855383, 18.533245], [74.0875559, 18.5309846], [74.089015, 18.5294384], [74.0900594, 18.5280448], [74.0919584, 18.5263296], [74.093233, 18.5252737], [74.0955204, 18.5242991], [74.0977134, 18.5239634], [74.0998506, 18.52376], [74.1018896, 18.5237416], [74.1088091, 18.5234812]]}}, {"type": "Feature", "properties": {"access": "permissive", "intermittent": "no", "natural": "water", "salt": "no", "water": "pond"}, "geometry": {"type": "Polygon", "coordinates": [[[73.8479716, 18.5212837], [73.848121, 18.5214738], [73.8480264, 18.5215406], [73.847877, 18.5213505], [73.8479716, 18.5212837]]]}}, {"type": "Feature", "properties": {"boat": "no", "intermittent": "yes", "name": "Nagzari", "name:mr": "\u0928\u093e\u0917\u091d\u0930\u0940", "waterway": "stream"}, "geometry": {"type": "LineString", "coordinates": [[73.8639183, 18.5162184], [73.8639405, 18.5162964], [73.864025, 18.5165303], [73.8641231, 18.5167345], [73.8641495, 18.5170153], [73.8640666, 18.5171225], [73.8636404, 18.5173606], [73.8629293, 18.517855], [73.8624358, 18.5179974], [73.8621326, 18.5181811], [73.8620281, 18.5184044], [73.8620728, 18.5188889], [73.8623669, 18.5193177], [73.8620239, 18.5196981], [73.8619469, 18.519838], [73.8619793, 18.5203048], [73.8619965, 18.5209324], [73.8619249, 18.5210347], [73.8614273, 18.5212122], [73.8612352, 18.521469], [73.8612161, 18.5215885], [73.8612476, 18.5216419], [73.8612872, 18.5216845], [73.8612858, 18.5218035], [73.8613033, 18.521874], [73.8613938, 18.5219605], [73.8614635, 18.5220662], [73.8614627, 18.5223858], [73.8612224, 18.5227881], [73.8609767, 18.5232061], [73.8609338, 18.5237351], [73.861084, 18.5240403], [73.8611309, 18.5241879], [73.8611698, 18.5244269], [73.861084, 18.5245693], [73.8608265, 18.5248338], [73.860204, 18.5256387], [73.8601184, 18.5257493], [73.8597348, 18.5263018], [73.8595869, 18.5265652], [73.8595175, 18.5267825]]}}, {"type": "Feature", "properties": {"boat": "no", "intermittent": "yes", "waterway": "stream"}, "geometry": {"type": "LineString", "coordinates": [[73.8683633, 18.5065165], [73.8682611, 18.5065761], [73.868169, 18.5066652], [73.8679947, 18.5068698], [73.8677891, 18.5071646], [73.8677569, 18.50748], [73.8677998, 18.507714], [73.8676925, 18.5080701], [73.8675209, 18.5082634], [73.8672686, 18.5085218], [73.8672131, 18.5085932], [73.8668679, 18.5088275], [73.8666733, 18.5089195], [73.8664862, 18.5090627], [73.8660081, 18.5091994], [73.8653809, 18.5093778], [73.8651117, 18.5093736], [73.8648197, 18.5093755], [73.8645873, 18.5095184], [73.8643431, 18.5095512], [73.8640031, 18.5096271], [73.8638134, 18.509716], [73.8637439, 18.5097666], [73.8636715, 18.5098333], [73.8634926, 18.5099712], [73.8634117, 18.5101455], [73.8634413, 18.5103783], [73.8635083, 18.5104813], [73.8635834, 18.5105932], [73.8636263, 18.5107356], [73.8635727, 18.5108984], [73.8635512, 18.5110205], [73.8635621, 18.511103], [73.8635727, 18.5111833], [73.8635941, 18.511346], [73.8636263, 18.511519], [73.8636907, 18.5116818], [73.8637658, 18.5117835], [73.8638516, 18.5119463], [73.8639911, 18.5121396], [73.8640662, 18.5123431], [73.8640984, 18.5124346], [73.8640757, 18.5126177], [73.8640757, 18.5127805], [73.8641294, 18.5130145], [73.8641616, 18.5131671], [73.864282, 18.5134228], [73.8643206, 18.513603], [73.8643387, 18.5137451], [73.8643654, 18.5138894], [73.8643156, 18.5141016], [73.8641723, 18.514276], [73.8640435, 18.5143981], [73.8637968, 18.5147033], [73.8637609, 18.5149018], [73.8638267, 18.5150593], [73.8638933, 18.5152526], [73.8639684, 18.5154154], [73.8640006, 18.5155985], [73.8639584, 18.5158074], [73.8639183, 18.5162184]]}}, {"type": "Feature", "properties": {"natural": "water", "water": "river"}, "geometry": {"type": "Polygon", "coordinates": [[[73.8597819, 18.5309284], [73.8597389, 18.5318971], [73.8590171, 18.5317412], [73.8577792, 18.5319042], [73.8570902, 18.5321054], [73.8567092, 18.5323448], [73.8561014, 18.5330157], [73.8554029, 18.5341511], [73.855167, 18.5349682], [73.8549674, 18.5363615], [73.8547407, 18.53969], [73.8547225, 18.5410575], [73.8547134, 18.542339], [73.8551579, 18.5442914], [73.8555934, 18.5456589], [73.8561467, 18.5474993], [73.856809, 18.5490646], [73.8576617, 18.550518], [73.8584963, 18.5513351], [73.8597663, 18.5521091], [73.8615352, 18.5529691], [73.8623789, 18.5534937], [73.8618164, 18.5542419], [73.8609274, 18.5537689], [73.8597028, 18.5531755], [73.8585598, 18.5524875], [73.857825, 18.5519801], [73.856936, 18.5511889], [73.8565187, 18.5506642], [73.8560923, 18.5497268], [73.8556841, 18.5487464], [73.8552849, 18.5476799], [73.8548858, 18.5467253], [73.8545048, 18.5454954], [73.8540421, 18.5443172], [73.8537428, 18.5431217], [73.853516, 18.5420466], [73.8535432, 18.5409285], [73.853643, 18.5393718], [73.8536793, 18.5369034], [73.8538335, 18.5354842], [73.8541419, 18.5343575], [73.8545728, 18.533377], [73.8553666, 18.53219], [73.8558882, 18.5317686], [73.8566003, 18.5312697], [73.857834, 18.5308095], [73.8587367, 18.5307235], [73.8590807, 18.5308599], [73.8592708, 18.5308585], [73.8594398, 18.5309221], [73.8596249, 18.5309501], [73.8597819, 18.5309284]]]}}, {"type": "Feature", "properties": {"natural": "water", "water": "river"}, "geometry": {"type": "Polygon", "coordinates": [[[73.8407421, 18.5115259], [73.8413319, 18.5123093], [73.8417225, 18.5127161], [73.8425749, 18.5135229], [73.8431327, 18.513996], [73.8436842, 18.5146516], [73.8442981, 18.5153258], [73.8448594, 18.5159883], [73.8450437, 18.5163191], [73.8450985, 18.5164174], [73.8454037, 18.5169687], [73.8455247, 18.5172582], [73.8455938, 18.5174234], [73.8457398, 18.5176585], [73.8461613, 18.5182645], [73.8467923, 18.5188648], [73.8474173, 18.5195008], [73.8480264, 18.5200963], [73.8484663, 18.5205315], [73.8486799, 18.5207108], [73.8490778, 18.5209659], [73.8493, 18.5210699], [73.8497112, 18.5211622], [73.8500081, 18.5212071], [73.8502591, 18.5213455], [73.8504396, 18.5213039], [73.8506922, 18.5212761], [73.8510234, 18.521333], [73.8513168, 18.5214131], [73.8515857, 18.5214567], [73.8519596, 18.5215469], [73.8524323, 18.5216648], [73.8531819, 18.521862], [73.8539206, 18.5222085], [73.8544035, 18.5224299], [73.855062, 18.5227998], [73.8555504, 18.523188], [73.8558212, 18.5228644], [73.8559212, 18.5227449], [73.8557795, 18.5226186], [73.8554677, 18.5222739], [73.8552879, 18.5221493], [73.8547892, 18.521949], [73.8544901, 18.5218278], [73.8541585, 18.5217192], [73.8537632, 18.5215736], [73.8532689, 18.521415], [73.852765, 18.5212515], [73.852407, 18.52116], [73.8519263, 18.5210714], [73.8511894, 18.5209373], [73.8506435, 18.520851], [73.850559, 18.5208647], [73.8501557, 18.5208169], [73.8496712, 18.5207238], [73.8496079, 18.5207633], [73.8493938, 18.5207493], [73.8490899, 18.520598], [73.8487366, 18.5204266], [73.8484212, 18.5201724], [73.8479132, 18.5196643], [73.8472829, 18.5190382], [73.8464383, 18.5182312], [73.8462497, 18.5180076], [73.8460374, 18.5177009], [73.8458015, 18.5173232], [73.8457384, 18.517263], [73.8456601, 18.5171176], [73.8453931, 18.5165839], [73.8450302, 18.5159262], [73.8446259, 18.51545], [73.844528, 18.5153075], [73.8444173, 18.515138], [73.8442924, 18.5149572], [73.844086, 18.5146607], [73.84355, 18.5139455], [73.8434324, 18.5137896], [73.8432738, 18.5135989], [73.8429482, 18.5132926], [73.8427761, 18.5131307], [73.8425142, 18.5128663], [73.842188, 18.5125764], [73.841937, 18.5123654], [73.8416312, 18.5120984], [73.8414038, 18.5119254], [73.8411407, 18.5115476], [73.8410881, 18.5114692], [73.8409519, 18.5112705], [73.8407421, 18.5115259]]]}}, {"type": "Feature", "properties": {"natural": "water"}, "geometry": {"type": "Polygon", "coordinates": [[[73.8547661, 18.5250756], [73.8547701, 18.5250807], [73.8547723, 18.5250866], [73.8547728, 18.525093], [73.8547713, 18.5250992], [73.854768, 18.5251047], [73.8547632, 18.5251091], [73.8547573, 18.5251121], [73.8547508, 18.5251134], [73.8547441, 18.5251129], [73.8547379, 18.5251107], [73.8547326, 18.5251068], [73.8547286, 18.5251017], [73.8547263, 18.5250957], [73.8547259, 18.5250894], [73.8547274, 18.5250832], [73.8547306, 18.5250777], [73.8547354, 18.5250732], [73.8547413, 18.5250702], [73.8547479, 18.525069], [73.8547545, 18.5250695], [73.8547608, 18.5250717], [73.8547661, 18.5250756]]]}}, {"type": "Feature", "properties": {"waterway": "river"}, "geometry": {"type": "LineString", "coordinates": [[73.8622785, 18.5334536], [73.8640344, 18.5343655], [73.8655364, 18.5344876], [73.8667488, 18.5346503], [73.8677037, 18.535281], [73.870343, 18.5388108], [73.8719789, 18.5402889]]}}, {"type": "Feature", "properties": {"min_height": "0.7", "natural": "water", "water": "pond"}, "geometry": {"type": "Polygon", "coordinates": [[[73.8553527, 18.5192672], [73.8553541, 18.5191866], [73.8554387, 18.5191879], [73.8554368, 18.5192261], [73.8554373, 18.5192686], [73.8553527, 18.5192672]]]}}, {"type": "Feature", "properties": {"min_height": "0.5", "natural": "water", "water": "pond"}, "geometry": {"type": "Polygon", "coordinates": [[[73.8557645, 18.5195939], [73.8557645, 18.5195247], [73.8558384, 18.5195247], [73.8558384, 18.5195939], [73.8557645, 18.5195939]]]}}, {"type": "Feature", "properties": {"natural": "water", "water": "pond"}, "geometry": {"type": "Polygon", "coordinates": [[[73.8553104, 18.519592], [73.8553108, 18.5195487], [73.8553601, 18.5195491], [73.8553596, 18.5195924], [73.8553104, 18.519592]]]}}, {"type": "Feature", "properties": {"min_height": "0.5", "natural": "water"}, "geometry": {"type": "Polygon", "coordinates": [[[73.8555953, 18.5190034], [73.8556302, 18.5190043], [73.8556312, 18.5189695], [73.8555963, 18.5189686], [73.8555953, 18.5190034]]]}}, {"type": "Feature", "properties": {"name": "Manik", "waterway": "stream"}, "geometry": {"type": "LineString", "coordinates": [[73.8595803, 18.5268361], [73.85977, 18.5264177], [73.8601531, 18.5258348], [73.8604368, 18.525454], [73.8609978, 18.5257161], [73.862659, 18.5252294], [73.862836, 18.5251254], [73.8633633, 18.5246992], [73.8637031, 18.5243435], [73.8638057, 18.5243267], [73.8643472, 18.5243837], [73.8643968, 18.5243837], [73.8645737, 18.5242596], [73.8646374, 18.5240515], [73.8648038, 18.5238938], [73.8648675, 18.5237461], [73.8648498, 18.5235481], [73.8646976, 18.5225615], [73.864733, 18.5224877], [73.8650802, 18.5224036], [73.8658203, 18.5222243], [73.8658954, 18.5222177], [73.8661224, 18.5223096], [73.8662573, 18.5223672], [73.8663425, 18.5223954], [73.8667932, 18.5225188]]}}, {"type": "Feature", "properties": {"name": "Manik", "waterway": "stream"}, "geometry": {"type": "LineString", "coordinates": [[73.8667932, 18.5225188], [73.8671002, 18.5225708]]}}, {"type": "Feature", "properties": {"layer": "-1", "name": "Manik", "tunnel": "culvert", "waterway": "stream"}, "geometry": {"type": "LineString", "coordinates": [[73.8671002, 18.5225708], [73.8673296, 18.5226262], [73.8674487, 18.5226467], [73.8675228, 18.5226334], [73.8675421, 18.5226306], [73.8675561, 18.5226129], [73.8675695, 18.5225061], [73.8675818, 18.5224303], [73.8676268, 18.5223594], [73.8676244, 18.5219858], [73.8675118, 18.5209474], [73.8675888, 18.5205118], [73.867667, 18.5203966], [73.8677678, 18.5202887], [73.8680333, 18.5199606], [73.8680709, 18.5199288], [73.8682653, 18.5199504], [73.8683243, 18.519939], [73.8684061, 18.5199136], [73.8686842, 18.5198211], [73.8691301, 18.5198366], [73.8694477, 18.5197746], [73.8697232, 18.5196905], [73.8700198, 18.5195377], [73.8702159, 18.519489], [73.8705615, 18.5195732], [73.8707646, 18.5196197], [73.8709168, 18.519331], [73.8709805, 18.5191465], [73.8709947, 18.5189887], [73.8710053, 18.5187706], [73.8710088, 18.5185927], [73.8711221, 18.5183243], [73.871115, 18.5180323], [73.8711504, 18.5178779], [73.8713238, 18.5178611], [73.871561, 18.5179148], [73.871883, 18.5179585], [73.8721768, 18.5179887], [73.8723962, 18.5179752], [73.8725201, 18.5179014], [73.8726616, 18.517794], [73.8728315, 18.5175826], [73.8729589, 18.5173611], [73.8730226, 18.5171363], [73.873051, 18.5170222], [73.8732138, 18.516653], [73.8732173, 18.5163912], [73.8732562, 18.5161764], [73.8732138, 18.5158039], [73.8731288, 18.515512], [73.8731182, 18.5152938], [73.8731607, 18.5149515], [73.8734438, 18.5146562], [73.8734951, 18.5141114], [73.8735863, 18.5137299], [73.8740047, 18.5132975], [73.8746109, 18.5126209], [73.8750025, 18.512153], [73.8752975, 18.5113543], [73.8755015, 18.5110831], [73.8759037, 18.5107134], [73.876188, 18.5103369], [73.8762238, 18.5102339], [73.8767326, 18.5092263], [73.8769907, 18.5088948], [73.8774499, 18.5085226], [73.8777794, 18.5082432], [73.8781412, 18.5079233], [73.878251, 18.5077498], [73.8783973, 18.5074799], [73.8785556, 18.5073679], [73.8787433, 18.5072331], [73.8789619, 18.5071847], [73.8789821, 18.5071619], [73.8790029, 18.507146], [73.8790002, 18.5071218], [73.8791504, 18.5070512], [73.8793187, 18.5069565], [73.8795849, 18.5068541], [73.8795842, 18.5067625], [73.8795876, 18.5066067], [73.879595, 18.5065069], [73.8795983, 18.5064172], [73.8796312, 18.506313], [73.8796908, 18.5062144], [73.8798055, 18.5059575]]}}]}